[{"OBJECT_NAME":"STARLINK-30881","OBJECT_ID":"2023-171X","EPOCH":"2026-01-18T20:28:27.005376","MEAN_MOTION":15.02534261,"ECCENTRICITY":0.00011045,"INCLINATION":43.0022,"RA_OF_ASC_NODE":197.145,"ARG_OF_PERICENTER":266.5469,"MEAN_ANOMALY":93.5247,"EPHEMERIS_TYPE":0,"CLASSIFICATION_TYPE":"U","NORAD_CAT_ID":58251,"ELEMENT_SET_NO":999,"REV_AT_EPOCH":12222,"BSTAR":-3.1832485e-5,"MEAN_MOTION_DOT":-6.33e-6,"MEAN_MOTION_DDOT":0},{"OBJECT_NAME":"STARLINK-30883","OBJECT_ID":"2023-171Y","EPOCH":"2026-01-18T11:37:05.089152","MEAN_MOTION":15.02535677,"ECCENTRICITY":0.00011982,"INCLINATION":43.0025,"RA_OF_ASC_NODE":198.7562,"ARG_OF_PERICENTER":256.7332,"MEAN_ANOMALY":103.3377,"EPHEMERIS_TYPE":0,"CLASSIFICATION_TYPE":"U","NORAD_CAT_ID":58252,"ELEMENT_SET_NO":999,"REV_AT_EPOCH":12217,"BSTAR":9.592068e-5,"MEAN_MOTION_DOT":1.092e-5,"MEAN_MOTION_DDOT":0},{"OBJECT_NAME":"STARLINK-30907","OBJECT_ID":"2023-177B","EPOCH":"2026-01-18T23:23:58.853472","MEAN_MOTION":15.02533774,"ECCENTRICITY":6.239e-5,"INCLINATION":43.0023,"RA_OF_ASC_NODE":262.0373,"ARG_OF_PERICENTER":256.5688,"MEAN_ANOMALY":103.5085,"EPHEMERIS_TYPE":0,"CLASSIFICATION_TYPE":"U","NORAD_CAT_ID":58352,"ELEMENT_SET_NO":999,"REV_AT_EPOCH":12082,"BSTAR":4.901919e-6,"MEAN_MOTION_DOT":-1.37e-6,"MEAN_MOTION_DDOT":0},{"OBJECT_NAME":"STARLINK-30896","OBJECT_ID":"2023-177C","EPOCH":"2026-01-18T15:58:15.718944","MEAN_MOTION":15.27588674,"ECCENTRICITY":6.735e-5,"INCLINATION":42.9963,"RA_OF_ASC_NODE":131.3119,"ARG_OF_PERICENTER":82.3026,"MEAN_ANOMALY":277.7902,"EPHEMERIS_TYPE":0,"CLASSIFICATION_TYPE":"U","NORAD_CAT_ID":58353,"ELEMENT_SET_NO":999,"REV_AT_EPOCH":12218,"BSTAR":6.2938045e-5,"MEAN_MOTION_DOT":1.471e-5,"MEAN_MOTION_DDOT":0},{"OBJECT_NAME":"STARLINK-30832","OBJECT_ID":"2023-177D","EPOCH":"2026-01-18T22:29:42.027936","MEAN_MOTION":15.02493391,"ECCENTRICITY":0.0001128,"INCLINATION":43.004,"RA_OF_ASC_NODE":261.7656,"ARG_OF_PERICENTER":262.311,"MEAN_ANOMALY":97.7604,"EPHEMERIS_TYPE":0,"CLASSIFICATION_TYPE":"U","NORAD_CAT_ID":58354,"ELEMENT_SET_NO":999,"REV_AT_EPOCH":12068,"BSTAR":-0.00035365886,"MEAN_MOTION_DOT":-4.972e-5,"MEAN_MOTION_DDOT":0},{"OBJECT_NAME":"STARLINK-30903","OBJECT_ID":"2023-177E","EPOCH":"2026-01-18T23:35:11.654592","MEAN_MOTION":15.02529477,"ECCENTRICITY":7.148e-5,"INCLINATION":43.0029,"RA_OF_ASC_NODE":262.1107,"ARG_OF_PERICENTER":251.2532,"MEAN_ANOMALY":108.8233,"EPHEMERIS_TYPE":0,"CLASSIFICATION_TYPE":"U","NORAD_CAT_ID":58355,"ELEMENT_SET_NO":999,"REV_AT_EPOCH":12073,"BSTAR":0.00017376961,"MEAN_MOTION_DOT":2.144e-5,"MEAN_MOTION_DDOT":0},{"OBJECT_NAME":"STARLINK-30905","OBJECT_ID":"2023-177F","EPOCH":"2026-01-18T23:17:34.788192","MEAN_MOTION":15.02531361,"ECCENTRICITY":0.00010968,"INCLINATION":43.0039,"RA_OF_ASC_NODE":261.9837,"ARG_OF_PERICENTER":259.3374,"MEAN_ANOMALY":100.7345,"EPHEMERIS_TYPE":0,"CLASSIFICATION_TYPE":"U","NORAD_CAT_ID":58356,"ELEMENT_SET_NO":999,"REV_AT_EPOCH":12067,"BSTAR":-2.5505609e-5,"MEAN_MOTION_DOT":-5.48e-6,"MEAN_MOTION_DDOT":0},{"OBJECT_NAME":"STARLINK-30842","OBJECT_ID":"2023-177G","EPOCH":"2026-01-18T16:27:32.131584","MEAN_MOTION":15.02533912,"ECCENTRICITY":0.00011358,"INCLINATION":43.0039,"RA_OF_ASC_NODE":249.5115,"ARG_OF_PERICENTER":263.1717,"MEAN_ANOMALY":96.8996,"EPHEMERIS_TYPE":0,"CLASSIFICATION_TYPE":"U","NORAD_CAT_ID":58357,"ELEMENT_SET_NO":999,"REV_AT_EPOCH":12085,"BSTAR":1.553892e-5,"MEAN_MOTION_DOT":6.0e-8,"MEAN_MOTION_DDOT":0},{"OBJECT_NAME":"STARLINK-30858","OBJECT_ID":"2023-177H","EPOCH":"2026-01-18T23:25:34.848192","MEAN_MOTION":15.02533084,"ECCENTRICITY":6.659e-5,"INCLINATION":43.0036,"RA_OF_ASC_NODE":262.0585,"ARG_OF_PERICENTER":264.263,"MEAN_ANOMALY":95.8136,"EPHEMERIS_TYPE":0,"CLASSIFICATION_TYPE":"U","NORAD_CAT_ID":58358,"ELEMENT_SET_NO":999,"REV_AT_EPOCH":12074,"BSTAR":-2.93149e-7,"MEAN_MOTION_DOT":-2.07e-6,"MEAN_MOTION_DDOT":0},{"OBJECT_NAME":"STARLINK-30878","OBJECT_ID":"2023-177J","EPOCH":"2026-01-18T22:21:38.755584","MEAN_MOTION":15.02536773,"ECCENTRICITY":7.643e-5,"INCLINATION":43.0021,"RA_OF_ASC_NODE":261.7231,"ARG_OF_PERICENTER":263.6857,"MEAN_ANOMALY":96.3898,"EPHEMERIS_TYPE":0,"CLASSIFICATION_TYPE":"U","NORAD_CAT_ID":58359,"ELEMENT_SET_NO":999,"REV_AT_EPOCH":12073,"BSTAR":1.551753e-5,"MEAN_MOTION_DOT":6.0e-8,"MEAN_MOTION_DDOT":0},{"OBJECT_NAME":"STARLINK-30897","OBJECT_ID":"2023-177K","EPOCH":"2026-01-18T23:30:22.374432","MEAN_MOTION":15.02534541,"ECCENTRICITY":7.218e-5,"INCLINATION":43.0041,"RA_OF_ASC_NODE":262.0812,"ARG_OF_PERICENTER":246.0233,"MEAN_ANOMALY":114.0534,"EPHEMERIS_TYPE":0,"CLASSIFICATION_TYPE":"U","NORAD_CAT_ID":58360,"ELEMENT_SET_NO":999,"REV_AT_EPOCH":12073,"BSTAR":3.9619474e-5,"MEAN_MOTION_DOT":3.32e-6,"MEAN_MOTION_DDOT":0},{"OBJECT_NAME":"STARLINK-30885","OBJECT_ID":"2023-177L","EPOCH":"2026-01-18T23:15:59.374944","MEAN_MOTION":15.02533195,"ECCENTRICITY":0.00010687,"INCLINATION":43.0037,"RA_OF_ASC_NODE":262.0102,"ARG_OF_PERICENTER":266.5303,"MEAN_ANOMALY":93.5418,"EPHEMERIS_TYPE":0,"CLASSIFICATION_TYPE":"U","NORAD_CAT_ID":58361,"ELEMENT_SET_NO":999,"REV_AT_EPOCH":12074,"BSTAR":-4.721265e-6,"MEAN_MOTION_DOT":-2.67e-6,"MEAN_MOTION_DDOT":0},{"OBJECT_NAME":"STARLINK-30890","OBJECT_ID":"2023-177M","EPOCH":"2026-01-18T23:11:11.452992","MEAN_MOTION":15.02537027,"ECCENTRICITY":6.146e-5,"INCLINATION":43.0032,"RA_OF_ASC_NODE":261.9833,"ARG_OF_PERICENTER":264.6787,"MEAN_ANOMALY":95.3985,"EPHEMERIS_TYPE":0,"CLASSIFICATION_TYPE":"U","NORAD_CAT_ID":58362,"ELEMENT_SET_NO":999,"REV_AT_EPOCH":12068,"BSTAR":-5.3181e-8,"MEAN_MOTION_DOT":-2.04e-6,"MEAN_MOTION_DDOT":0},{"OBJECT_NAME":"STARLINK-30909","OBJECT_ID":"2023-177N","EPOCH":"2026-01-18T23:09:36.052704","MEAN_MOTION":15.02543989,"ECCENTRICITY":0.00010576,"INCLINATION":43.0034,"RA_OF_ASC_NODE":261.9734,"ARG_OF_PERICENTER":320.6339,"MEAN_ANOMALY":39.4426,"EPHEMERIS_TYPE":0,"CLASSIFICATION_TYPE":"U","NORAD_CAT_ID":58363,"ELEMENT_SET_NO":999,"REV_AT_EPOCH":12073,"BSTAR":-4.7448046e-5,"MEAN_MOTION_DOT":-8.45e-6,"MEAN_MOTION_DDOT":0},{"OBJECT_NAME":"STARLINK-30904","OBJECT_ID":"2023-177P","EPOCH":"2026-01-18T23:13:52.455072","MEAN_MOTION":15.02530946,"ECCENTRICITY":5.154e-5,"INCLINATION":43.0019,"RA_OF_ASC_NODE":260.2817,"ARG_OF_PERICENTER":257.5546,"MEAN_ANOMALY":102.5238,"EPHEMERIS_TYPE":0,"CLASSIFICATION_TYPE":"U","NORAD_CAT_ID":58364,"ELEMENT_SET_NO":999,"REV_AT_EPOCH":12075,"BSTAR":-5.7746843e-5,"MEAN_MOTION_DOT":-9.83e-6,"MEAN_MOTION_DDOT":0},{"OBJECT_NAME":"STARLINK-30918","OBJECT_ID":"2023-177Q","EPOCH":"2026-01-18T22:56:48.740352","MEAN_MOTION":15.02532527,"ECCENTRICITY":7.999e-5,"INCLINATION":43.0035,"RA_OF_ASC_NODE":261.9072,"ARG_OF_PERICENTER":259.2638,"MEAN_ANOMALY":100.8114,"EPHEMERIS_TYPE":0,"CLASSIFICATION_TYPE":"U","NORAD_CAT_ID":58365,"ELEMENT_SET_NO":999,"REV_AT_EPOCH":12073,"BSTAR":-1.4147423e-5,"MEAN_MOTION_DOT":-3.95e-6,"MEAN_MOTION_DDOT":0}]
