STARLINK-30881          
1 58251U 23171X   26018.85309034 -.00000633  00000+0 -31832-4 0  9998
2 58251  43.0022 197.1450 0001104 266.5469  93.5247 15.02534261122223
STARLINK-30883          
1 58252U 23171Y   26018.48408668  .00001092  00000+0  95921-4 0  9998
2 58252  43.0025 198.7562 0001198 256.7332 103.3377 15.02535677122171
STARLINK-30907          
1 58352U 23177B   26018.97498673 -.00000137  00000+0  49019-5 0  9992
2 58352  43.0023 262.0373 0000623 256.5688 103.5085 15.02533774120823
STARLINK-30896          
1 58353U 23177C   26018.66545971  .00001471  00000+0  62938-4 0  9998
2 58353  42.9963 131.3119 0000673  82.3026 277.7902 15.27588674122186
STARLINK-30832          
1 58354U 23177D   26018.93729199 -.00004972  00000+0 -35366-3 0  9990
2 58354  43.0040 261.7656 0001128 262.3110  97.7604 15.02493391120685
STARLINK-30903          
1 58355U 23177E   26018.98277378  .00002144  00000+0  17377-3 0  9992
2 58355  43.0029 262.1107 0000714 251.2532 108.8233 15.02529477120737
STARLINK-30905          
1 58356U 23177F   26018.97054153 -.00000548  00000+0 -25506-4 0  9998
2 58356  43.0039 261.9837 0001096 259.3374 100.7345 15.02531361120676
STARLINK-30842          
1 58357U 23177G   26018.68578856  .00000006  00000+0  15539-4 0  9990
2 58357  43.0039 249.5115 0001135 263.1717  96.8996 15.02533912120857
STARLINK-30858          
1 58358U 23177H   26018.97609778 -.00000207  00000+0 -29315-6 0  9995
2 58358  43.0036 262.0585 0000665 264.2630  95.8136 15.02533084120742
STARLINK-30878          
1 58359U 23177J   26018.93169856  .00000006  00000+0  15518-4 0  9993
2 58359  43.0021 261.7231 0000764 263.6857  96.3898 15.02536773120733
STARLINK-30897          
1 58360U 23177K   26018.97942563  .00000332  00000+0  39619-4 0  9993
2 58360  43.0041 262.0812 0000721 246.0233 114.0534 15.02534541120738
STARLINK-30885          
1 58361U 23177L   26018.96943721 -.00000267  00000+0 -47213-5 0  9999
2 58361  43.0037 262.0102 0001068 266.5303  93.5418 15.02533195120743
STARLINK-30890          
1 58362U 23177M   26018.96610478 -.00000204  00000+0 -53181-7 0  9994
2 58362  43.0032 261.9833 0000614 264.6787  95.3985 15.02537027120689
STARLINK-30909          
1 58363U 23177N   26018.96500061 -.00000845  00000+0 -47448-4 0  9998
2 58363  43.0034 261.9734 0001057 320.6339  39.4426 15.02543989120739
STARLINK-30904          
1 58364U 23177P   26018.96796823 -.00000983  00000+0 -57747-4 0  9998
2 58364  43.0019 260.2817 0000515 257.5546 102.5238 15.02530946120757
STARLINK-30918          
1 58365U 23177Q   26018.95611968 -.00000395  00000+0 -14147-4 0  9998
2 58365  43.0035 261.9072 0000799 259.2638 100.8114 15.02532527120731
